$$SOE
2460147.500000000, A.D. 2023-Jul-22 00:00:00.0000, -2.413677748749339E+08, -3.939390991900616E+08, 4.042187799241126E+06,
2460154.500000000, A.D. 2023-Jul-29 00:00:00.0000, -2.328397314061211E+08, -3.990405031361666E+08, 4.250019017208487E+06,
2460161.500000000, A.D. 2023-Aug-05 00:00:00.0000, -2.241971399034835E+08, -4.039455077909716E+08, 4.455759977409691E+06,
2460168.500000000, A.D. 2023-Aug-12 00:00:00.0000, -2.154442494006943E+08, -4.086516871901741E+08, 4.659309408210903E+06,
2460175.500000000, A.D. 2023-Aug-19 00:00:00.0000, -2.065853541720681E+08, -4.131566957203190E+08, 4.860566871781945E+06,
2460182.500000000, A.D. 2023-Aug-26 00:00:00.0000, -1.976247927782396E+08, -4.174582686200160E+08, 5.059432793674082E+06,
2460189.500000000, A.D. 2023-Sep-02 00:00:00.0000, -1.885669471395575E+08, -4.215542225668823E+08, 5.255808487905234E+06,
2460196.500000000, A.D. 2023-Sep-09 00:00:00.0000, -1.794162415989799E+08, -4.254424563924108E+08, 5.449596170917034E+06,
2460203.500000000, A.D. 2023-Sep-16 00:00:00.0000, -1.701771418046161E+08, -4.291209519835467E+08, 5.640698944348902E+06,
2460210.500000000, A.D. 2023-Sep-23 00:00:00.0000, -1.608541529940571E+08, -4.325877750847576E+08, 5.829020732018083E+06,
2460217.500000000, A.D. 2023-Sep-30 00:00:00.0000, -1.514518180185555E+08, -4.358410748100616E+08, 6.014466299720675E+06,
2460224.500000000, A.D. 2023-Oct-07 00:00:00.0000, -1.419747174588433E+08, -4.388790824073815E+08, 6.196941529505134E+06,
2460231.500000000, A.D. 2023-Oct-14 00:00:00.0000, -1.324274707901520E+08, -4.417001125883619E+08, 6.376353582340986E+06,
2460238.500000000, A.D. 2023-Oct-21 00:00:00.0000, -1.228147353658429E+08, -4.443025658223166E+08, 6.552610784200460E+06,
2460245.500000000, A.D. 2023-Oct-28 00:00:00.0000, -1.131412046428091E+08, -4.466849293353855E+08, 6.725622551248580E+06,
2460252.500000000, A.D. 2023-Nov-04 00:00:00.0000, -1.034116068973873E+08, -4.488457775854270E+08, 6.895299406198442E+06,
2460259.500000000, A.D. 2023-Nov-11 00:00:00.0000, -9.363070425262278E+07, -4.507837728121750E+08, 7.061553020833403E+06,
2460266.500000000, A.D. 2023-Nov-18 00:00:00.0000, -8.380329179549119E+07, -4.524976657264265E+08, 7.224296259540796E+06,
2460273.500000000, A.D. 2023-Nov-25 00:00:00.0000, -7.393419670901471E+07, -4.539862963153306E+08, 7.383443219182044E+06,
2460280.500000000, A.D. 2023-Dec-02 00:00:00.0000, -6.402827738879555E+07, -4.552485947751151E+08, 7.538909261936396E+06,
2460287.500000000, A.D. 2023-Dec-09 00:00:00.0000, -5.409042246414371E+07, -4.562835826306481E+08, 7.690611029319644E+06,
2460294.500000000, A.D. 2023-Dec-16 00:00:00.0000, -4.412554943457418E+07, -4.570903740296668E+08, 7.838466412158877E+06,
2460301.500000000, A.D. 2023-Dec-23 00:00:00.0000, -3.413860257167804E+07, -4.576681765243030E+08, 7.982394500797093E+06,
2460308.500000000, A.D. 2023-Dec-30 00:00:00.0000, -2.413455142503582E+07, -4.580162902900144E+08, 8.122315724140644E+06,
2460315.500000000, A.D. 2024-Jan-06 00:00:00.0000, -1.411839170252801E+07, -4.581341081411026E+08, 8.258152146952033E+06,
2460322.500000000, A.D. 2024-Jan-13 00:00:00.0000, -4.095145349417766E+06, -4.580211181488306E+08, 8.389827486366957E+06,
2460329.500000000, A.D. 2024-Jan-20 00:00:00.0000, 5.930141399908512E+06, -4.576769057781733E+08, 8.517266987273544E+06,
2460336.500000000, A.D. 2024-Jan-27 00:00:00.0000, 1.595239997069729E+07, -4.571011548914676E+08, 8.640397395817161E+06,
2460343.500000000, A.D. 2024-Feb-03 00:00:00.0000, 2.596654097043257E+07, -4.562936485673680E+08, 8.759146992677927E+06,
2460350.500000000, A.D. 2024-Feb-10 00:00:00.0000, 3.596745556418341E+07, -4.552542700256406E+08, 8.873445636774242E+06,
2460357.500000000, A.D. 2024-Feb-17 00:00:00.0000, 4.595001684261242E+07, -4.539830036486703E+08, 8.983224807199925E+06,
2460364.500000000, A.D. 2024-Feb-24 00:00:00.0000, 5.590908121976300E+07, -4.524799360827528E+08, 9.088417641132325E+06,
2460371.500000000, A.D. 2024-Mar-02 00:00:00.0000, 6.583948989162546E+07, -4.507452574488009E+08, 9.188958962142169E+06,
2460378.500000000, A.D. 2024-Mar-09 00:00:00.0000, 7.573607049672523E+07, -4.487792627223634E+08, 9.284785280815065E+06,
2460385.500000000, A.D. 2024-Mar-16 00:00:00.0000, 8.559363937722588E+07, -4.465823530834473E+08, 9.375834747387439E+06,
2460392.500000000, A.D. 2024-Mar-23 00:00:00.0000, 9.540700434036472E+07, -4.441550361260869E+08, 9.462047156458020E+06,
2460399.500000000, A.D. 2024-Mar-30 00:00:00.0000, 1.051709656818225E+08, -4.414979249539157E+08, 9.543364207151145E+06,
2460406.500000000, A.D. 2024-Apr-06 00:00:00.0000, 1.148803157292984E+08, -4.386117395282148E+08, 9.619729719999641E+06,
2460413.500000000, A.D. 2024-Apr-13 00:00:00.0000, 1.245298404596914E+08, -4.354973094311517E+08, 9.691089553228289E+06,
2460420.500000000, A.D. 2024-Apr-20 00:00:00.0000, 1.341143222394805E+08, -4.321555753670744E+08, 9.757391524696231E+06,
2460427.500000000, A.D. 2024-Apr-27 00:00:00.0000, 1.436285421725367E+08, -4.285875899616639E+08, 9.818585432926118E+06,
2460434.500000000, A.D. 2024-May-04 00:00:00.0000, 1.530672821446733E+08, -4.247945185596956E+08, 9.874623111760467E+06,
2460441.500000000, A.D. 2024-May-11 00:00:00.0000, 1.624253268048598E+08, -4.207776401201316E+08, 9.925458488542885E+06,
2460448.500000000, A.D. 2024-May-18 00:00:00.0000, 1.716974655666597E+08, -4.165383481835212E+08, 9.971047640142411E+06,
2460455.500000000, A.D. 2024-May-25 00:00:00.0000, 1.808784946562396E+08, -4.120781519150018E+08, 1.001134884401688E+07,
2460462.500000000, A.D. 2024-Jun-01 00:00:00.0000, 1.899632192688383E+08, -4.073986772763355E+08, 1.004632261419651E+07,
2460469.500000000, A.D. 2024-Jun-08 00:00:00.0000, 1.989464560825516E+08, -4.025016683465132E+08, 1.007593169791257E+07,
2460476.500000000, A.D. 2024-Jun-15 00:00:00.0000, 2.078230365313204E+08, -3.973889882433781E+08, 1.010014104114401E+07,
2460483.500000000, A.D. 2024-Jun-22 00:00:00.0000, 2.165878098333455E+08, -3.920626184689176E+08, 1.011891791172123E+07,
2460490.500000000, A.D. 2024-Jun-29 00:00:00.0000, 2.252356436536499E+08, -3.865246584954983E+08, 1.013223222597916E+07,
2460497.500000000, A.D. 2024-Jul-06 00:00:00.0000, 2.337614250462726E+08, -3.807773280590286E+08, 1.014005663436911E+07,
2460504.500000000, A.D. 2024-Jul-13 00:00:00.0000, 2.421600636267911E+08, -3.748229693305763E+08, 1.014236641805243E+07,
2460511.500000000, A.D. 2024-Jul-20 00:00:00.0000, 2.504264949906566E+08, -3.686640478142821E+08, 1.013913947257583E+07,
2460518.500000000, A.D. 2024-Jul-27 00:00:00.0000, 2.585556837217294E+08, -3.623031529269698E+08, 1.013035636036305E+07,
2460525.500000000, A.D. 2024-Aug-03 00:00:00.0000, 2.665426262641594E+08, -3.557429986295098E+08, 1.011600037618780E+07,
2460532.500000000, A.D. 2024-Aug-10 00:00:00.0000, 2.743823538237259E+08, -3.489864241090735E+08, 1.009605760981719E+07,
2460539.500000000, A.D. 2024-Aug-17 00:00:00.0000, 2.820699353463830E+08, -3.420363944850501E+08, 1.007051700295681E+07,
2460546.500000000, A.D. 2024-Aug-24 00:00:00.0000, 2.896004806021820E+08, -3.348960015551870E+08, 1.003937039572853E+07,
2460553.500000000, A.D. 2024-Aug-31 00:00:00.0000, 2.969691434906480E+08, -3.275684646375044E+08, 1.000261254659557E+07,
2460560.500000000, A.D. 2024-Sep-07 00:00:00.0000, 3.041711259342067E+08, -3.200571313760504E+08, 9.960241102189839E+06,
2460567.500000000, A.D. 2024-Sep-14 00:00:00.0000, 3.112016824463090E+08, -3.123654775105382E+08, 9.912256590509519E+06,
2460574.500000000, A.D. 2024-Sep-21 00:00:00.0000, 3.180561233455119E+08, -3.044971051941690E+08, 9.858662657234982E+06,
2460581.500000000, A.D. 2024-Sep-28 00:00:00.0000, 3.247298161259139E+08, -2.964557430825431E+08, 9.799466325756401E+06,
2460588.500000000, A.D. 2024-Oct-05 00:00:00.0000, 3.312181886514884E+08, -2.882452481852430E+08, 9.734677943994522E+06,
2460595.500000000, A.D. 2024-Oct-12 00:00:00.0000, 3.375167338129440E+08, -2.798696064939838E+08, 9.664311094446480E+06,
2460602.500000000, A.D. 2024-Oct-19 00:00:00.0000, 3.436210138952394E+08, -2.713329326532276E+08, 9.588382605913326E+06,
2460609.500000000, A.D. 2024-Oct-26 00:00:00.0000, 3.495266646213804E+08, -2.626394694696980E+08, 9.506912604355097E+06,
2460616.500000000, A.D. 2024-Nov-02 00:00:00.0000, 3.552293991267521E+08, -2.537935874038649E+08, 9.419924567052722E+06,
2460623.500000000, A.D. 2024-Nov-09 00:00:00.0000, 3.607250119563370E+08, -2.447997840167617E+08, 9.327445372708112E+06,
2460630.500000000, A.D. 2024-Nov-16 00:00:00.0000, 3.660093831055673E+08, -2.356626833649188E+08, 9.229505344785705E+06,
2460637.500000000, A.D. 2024-Nov-23 00:00:00.0000, 3.710784821464252E+08, -2.263870353852020E+08, 9.126138279251412E+06,
2460644.500000000, A.D. 2024-Nov-30 00:00:00.0000, 3.759283726426384E+08, -2.169777153033217E+08, 9.017381433690041E+06,
2460651.500000000, A.D. 2024-Dec-07 00:00:00.0000, 3.805552172711011E+08, -2.074397226370168E+08, 8.903275473632038E+06,
2460658.500000000, A.D. 2024-Dec-14 00:00:00.0000, 3.849552829606098E+08, -1.977781785645284E+08, 8.783864539748348E+06,
2460665.500000000, A.D. 2024-Dec-21 00:00:00.0000, 3.891249437274398E+08, -1.879983228968745E+08, 8.659196547687985E+06,
2460672.500000000, A.D. 2024-Dec-28 00:00:00.0000, 3.930606831737058E+08, -1.781055136179202E+08, 8.529323297114097E+06,
2460679.500000000, A.D. 2025-Jan-04 00:00:00.0000, 3.967590992379248E+08, -1.681052266101151E+08, 8.394300345716655E+06,
2460686.500000000, A.D. 2025-Jan-11 00:00:00.0000, 4.002169093699622E+08, -1.580030539002204E+08, 8.254186950927913E+06,
2460693.500000000, A.D. 2025-Jan-18 00:00:00.0000, 4.034309552068178E+08, -1.478047013386766E+08, 8.109046088441916E+06,
2460700.500000000, A.D. 2025-Jan-25 00:00:00.0000, 4.063982069854922E+08, -1.375159861821154E+08, 7.958944486472368E+06,
2460707.500000000, A.D. 2025-Feb-01 00:00:00.0000, 4.091157678747952E+08, -1.271428346042220E+08, 7.803952655953810E+06,
2460714.500000000, A.D. 2025-Feb-08 00:00:00.0000, 4.115808782766306E+08, -1.166912791107001E+08, 7.644144912989281E+06,
$$EOE